[
 {
   "buildingName": "NYDC",
   "buildingType": "Commercial",
   "address": "200 Lexignton Avenue",
   "city": "New York",
   "state": "NY",
   "zipcode": 10001,
   "projectType": "EC Motors"
 },
 {
   "buildingName": "DVM Bronx",
   "buildingType": "Commercial",
   "address": "2322 Arthur Avenue",
   "city": "Bronx",
   "state": "NY",
   "zipcode": 10458,
   "projectType": "LED Lighting"
 },
 {
   "buildingName": "TimeSquare Hotel",
   "buildingType": "Hospitality",
   "address": "59 W 46th St",
   "city": "New York",
   "state": "NY",
   "zipcode": 10036,
   "projectType": "EC Motors"
 },
 {
   "buildingName": "Queens Hospital",
   "buildingType": "Healthcare",
   "address": "25-10 30th Ave",
   "city": "Queens",
   "state": "NY",
   "zipcode": 11102,
   "projectType": "EC Motors"
 },
 {
   "buildingName": "Brooklyn Hospital",
   "buildingType": "Healthcare",
   "address": "240 Willoughby St",
   "city": "Brooklyn",
   "state": "NY",
   "zipcode": 11201,
   "projectType": "LED Lighting"
 },
 {
   "buildingName": "Jersey Hospital",
   "buildingType": "Healthcare",
   "address": "308 Willow Ave",
   "city": "Hoboken",
   "state": "NJ",
   "zipcode": 7030,
   "projectType": "Water Conservation"
 },
 {
   "buildingName": "Rutgers University",
   "buildingType": "Education",
   "address": "7 College Ave",
   "city": "New Brunswick",
   "state": "NJ",
   "zipcode": 8901,
   "projectType": "Water Conservation"
 },
 {
   "buildingName": "Albany University",
   "buildingType": "Education",
   "address": "1400 Washington Ave",
   "city": "Albany",
   "state": "NY",
   "zipcode": 12222,
   "projectType": "EC Motors"
 },
 {
   "buildingName": "",
   "buildingType": "",
   "address": "",
   "city": "",
   "state": "",
   "zipcode": null,
   "projectType": "LED Lighting"
 }
]